*******************************************************************************
 Revised: Nov 12, 2021         Parker Solar Probe / Sun                    -96
                         http://parkersolarprobe.jhuapl.edu/ 

 BACKGROUND:
  The Parker Solar Probe Mission will use seven Venus gravity assist flybys 
  over nearly seven years to gradually bring the spacecraft's trajectory closer
  to the Sun, which it will orbit at least 24 times with a final solar orbit
  period of 88 days.

  The spacecraft will fly through the Sun's outer corona, 5.9 million km from 
  the surface (8.5 solar radii).

  The orbit will be highly elliptical to minimize the time spent closest
  to the Sun, where incident solar radiation will be approximately 520 times 
  the intensity at Earth and temperatures near 2500 deg. F (1377 C).
 
 LAUNCH
  Date:           2018-Aug-12 07:31 UTC from NASA Kennedy Space Center
                  Complex 37
  Launch vehicle: Delta IV Heavy with Upper Stage

 EVENTS
  2018
    2018-Oct-03: Venus Flyby #1 @ 8:44 UTC
    2018-Nov-06: Perihelion #1 @ 03:27 UTC
  2019
    2019-Jan-19: Aphelion #1
    2019-Jan-20: Second orbit begins
    2019-Apr-04: Perihelion #2
    2019-Sep-01: Perihelion #3
    2019-Dec-26: Venus flyby #2
  2020
    2020-Jan-29: Perihelion #4
    2020-Jun-07: Perihelion #5
    2020-Jul-11: Venus flyby #3
    2020-Sep-27: Perihelion #6 
  2021
    2021-Jan-17: Perihelion #7
    2021-Feb-20: Venus flyby #4
    2021-Apr-29: Perihelion #8
    2021-Aug-09: Perihelion #9 
    2021-Oct-16: Venus flyby #5
    2021-Nov-21: Perihelion #10
  2022
    2022-Feb-25: Perihelion #11
    2022-Jun-01: Perihelion #12
    2022-Sep-06: Perihelion #13
    2022-Dec-11: Perihelion #14
  2023
    2023-Mar-17: Perihelion #15
    2023-Jun-22: Perihelion #16
    2023-Aug-21: Venus flyby #6
    2023-Sep-27: Perihelion #17
    2023-Dec-29: Perihelion #18
  2024
    2024-Mar-30: Perihelion #19
    2024-Jun-30: Perihelion #20
    2024-Sep-30: Perihelion #21
    2024-Nov-06: Venus flyby #7 (last one)
    2024-Dec-24: Perihelion #22 (first close approach)
  2025
    2025-Mar-22: Perihelion #23
    2025-Jun-19: Perihelion #24

 GOALS
  * Determine the structure and dynamics of the magnetic fields at the 
     sources of solar wind.
  * Trace the flow of energy that heats the corona and accelerates the solar 
     wind.
  * Determine what mechanisms accelerate and transport energetic particles.
  * Explore dusty plasma near the Sun and its influence on solar wind and 
     solar energetic particles formation.

 SPACECRAFT TRAJECTORY 
  Fit to post-launch tracking data 2018(Aug)-2021(May). Reference planning 
  trajectory for times after May 09, 2021.

  NOTE: the reference trajectory through 2025 will be updated when revised 
   instead of presenting more-frequent but short-term local OD reconstructions.

  Name                                      Start (TDB)         End (TDB) 
  ---------------------------------------  -----------------  -----------------
  spp_nom_20180812_20250831_v038_RO5       2018-Aug-12 08:17  2025-Aug-31 06:10
*******************************************************************************


*******************************************************************************
Ephemeris / WWW_USER Wed Jan 12 20:08:54 2022 Pasadena, USA      / Horizons
*******************************************************************************
Target body name: Parker Solar Probe (spacecraft) (-96) {source: Parker_Solar_Probe}
Center body name: Sun (10)                        {source: DE441}
Center-site name: BODY CENTER
*******************************************************************************
Start time      : A.D. 2018-Aug-12 08:16:23.3440 TDB
Stop  time      : A.D. 2022-Feb-12 00:00:00.0000 TDB
Step-size       : 360 minutes
*******************************************************************************
Center geodetic : 0.00000000,0.00000000,0.0000000 {E-lon(deg),Lat(deg),Alt(km)}
Center cylindric: 0.00000000,0.00000000,0.0000000 {E-lon(deg),Dxy(km),Dz(km)}
Center radii    : 696000.0 x 696000.0 x 696000.0 k{Equator, meridian, pole}    
Output units    : KM-S
Output type     : GEOMETRIC cartesian states
Output format   : 3 (position, velocity, LT, range, range-rate)
Reference frame : Ecliptic of B1950.0
*******************************************************************************
            JDTDB,            Calendar Date (TDB),                      X,                      Y,                      Z,                     VX,                     VY,                     VZ,                     LT,                     RG,                     RR,
**************************************************************************************************************************************************************************************************************************************************************************
$$SOE
2459587.344714629, A.D. 2022-Jan-07 20:16:23.3440,  9.253778330609699E+07, -6.588255600392400E+07, -6.272559476111971E+06,  8.065323698307118E+00,  1.050367010344623E+01, -3.097876466206277E-01,  3.794883158826367E+02,  1.137677350007361E+08,  4.947070827107775E-01,
2459587.594714629, A.D. 2022-Jan-08 02:16:23.3440,  9.271004771208008E+07, -6.565429330946463E+07, -6.279118976854756E+06,  7.885034640712249E+00,  1.063168618949330E+01, -2.975718278991129E-01,  3.795171798489035E+02,  1.137763882001309E+08,  3.065186349812251E-01,
2459587.844714629, A.D. 2022-Jan-08 08:16:23.3440,  9.287841463673504E+07, -6.542327053710630E+07, -6.285414503996536E+06,  7.704445588138324E+00,  1.075923297828082E+01, -2.853456329678754E-01,  3.795324855818827E+02,  1.137809767434422E+08,  1.183501665829898E-01,
2459588.094714629, A.D. 2022-Jan-08 14:16:23.3440,  9.304287749695848E+07, -6.518949774875359E+07, -6.291445826394551E+06,  7.523544869914032E+00,  1.088631891362334E+01, -2.731082688006037E-01,  3.795342341731345E+02,  1.137815009579116E+08, -6.981058162187166E-02,
2459588.344714629, A.D. 2022-Jan-08 20:16:23.3440,  9.320342943531676E+07, -6.495298481015372E+07, -6.297212694298875E+06,  7.342320714175941E+00,  1.101295228677230E+01, -2.608589387865576E-01,  3.795224257436720E+02,  1.137779608798179E+08, -2.579758643483062E-01,
2459588.594714629, A.D. 2022-Jan-09 02:16:23.3440,  9.336006333816791E+07, -6.471374140872919E+07, -6.302714840652857E+06,  7.160761257627893E+00,  1.113914126178322E+01, -2.485968429210037E-01,  3.794970595277333E+02,  1.137703562795915E+08, -4.461579379495477E-01,
2459588.844714629, A.D. 2022-Jan-09 08:16:23.3440,  9.351277183358201E+07, -6.447177705624786E+07, -6.307951981012605E+06,  6.978854541215928E+00,  1.126489387833170E+01, -2.363211775158756E-01,  3.794581338722542E+02,  1.137586866616561E+08, -6.343690648291201E-01,
2459589.094714629, A.D. 2022-Jan-09 14:16:23.3440,  9.366154728926203E+07, -6.422710109149261E+07, -6.312923813466650E+06,  6.796588505803169E+00,  1.139021805452927E+01, -2.240311349104087E-01,  3.794056462363962E+02,  1.137429512642876E+08, -8.226215178513756E-01,
2459589.344714629, A.D. 2022-Jan-09 20:16:23.3440,  9.380638178418155E+07, -6.397972266824310E+07, -6.317630016832385E+06,  6.613950965263614E+00,  1.151512156688779E+01, -2.117259022189781E-01,  3.793395930909311E+02,  1.137231490294501E+08, -1.010927590883360E+00,
2459589.594714629, A.D. 2022-Jan-10 02:16:23.3440,  9.394726718574546E+07, -6.372965080222991E+07, -6.322070255770396E+06,  6.430929670237783E+00,  1.163961212203113E+01, -1.994046639445841E-01,  3.792599702199290E+02,  1.136992786932393E+08, -1.199299584837218E+00,
2459589.844714629, A.D. 2022-Jan-10 08:16:23.3440,  9.408419507748367E+07, -6.347689433455733E+07, -6.326244176100209E+06,  6.247512243470863E+00,  1.176369729845197E+01, -1.870665991168581E-01,  3.791667724528289E+02,  1.136713387055603E+08, -1.387749828118729E+00,
2459590.094714629, A.D. 2022-Jan-10 14:16:23.3440,  9.421715676895097E+07, -6.322146194106787E+07, -6.330151405505121E+06,  6.063686185779757E+00,  1.188738455974308E+01, -1.747108814415395E-01,  3.790599937098157E+02,  1.136393272437302E+08, -1.576290678344103E+00,
2459590.344714629, A.D. 2022-Jan-10 20:16:23.3440,  9.434614329727010E+07, -6.296336213703691E+07, -6.333791553689305E+06,  5.879438874840482E+00,  1.201068126056289E+01, -1.623366791438219E-01,  3.789396270154315E+02,  1.136032422165594E+08, -1.764934525888578E+00,
2459590.594714629, A.D. 2022-Jan-11 02:16:23.3440,  9.447114542445828E+07, -6.270260327951039E+07, -6.337164212258391E+06,  5.694757560352758E+00,  1.213359464893504E+01, -1.499431546572652E-01,  3.788056644961712E+02,  1.135630812636305E+08, -1.953693798399367E+00,
2459590.844714629, A.D. 2022-Jan-11 08:16:23.3440,  9.459215362236853E+07, -6.243919356464669E+07, -6.340268953816216E+06,  5.509629346774572E+00,  1.225613186004228E+01, -1.375294637234257E-01,  3.786580973344007E+02,  1.135188417414832E+08, -2.142580971319417E+00,
2459591.094714629, A.D. 2022-Jan-11 14:16:23.3440,  9.470915809182459E+07, -6.217314103885204E+07, -6.343105333225757E+06,  5.324041210373923E+00,  1.237829993350267E+01, -1.250947561183082E-01,  3.784969158430144E+02,  1.134705207459964E+08, -2.331608561872434E+00,
2459591.344714629, A.D. 2022-Jan-11 20:16:23.3440,  9.482214877810138E+07, -6.190445360844187E+07, -6.345672888638504E+06,  5.137980012613022E+00,  1.250010582813620E+01, -1.126381762049569E-01,  3.783221095274738E+02,  1.134181151309866E+08, -2.520789124492227E+00,
2459591.594714629, A.D. 2022-Jan-12 02:16:23.3440,  9.493111532052022E+07, -6.163313902272371E+07, -6.347971138354462E+06,  4.951432447408962E+00,  1.262155639148498E+01, -1.001588603514607E-01,  3.781336669150774E+02,  1.133616214570243E+08, -2.710135278494612E+00,
2459591.844714629, A.D. 2022-Jan-12 08:16:23.3440,  9.503604706812765E+07, -6.135920488373853E+07, -6.349999581864070E+06,  4.764385054716852E+00,  1.274265837471605E+01, -8.765593749296663E-02,  3.779315756176298E+02,  1.133010360102221E+08, -2.899659703648827E+00,
